STARLINK-32000          
1 60289U 24132M   26068.39628507 -.00000725  00000+0 -12344-4 0  9992
2 60289  53.1611  53.9242 0001510  98.3792 261.7380 15.30186778 91513
TEVEL2-2                
1 63219U 25052K   26068.64848259  .00020339  00000+0  69428-3 0  9991
2 63219  97.3987 324.7700 0004693 105.7930 254.3828 15.30343745 54855
